{
  "norad_id": 68331,
  "name": "STARLINK-36932",
  "history": [
    {
      "epoch": "2026-03-31T16:00:01.999584Z",
      "apogee_km": 328.4948044202429,
      "perigee_km": 327.62434010516336,
      "latitude_deg": -49.494509891103135,
      "longitude_deg": 64.31813443629471,
      "height_km": 345.43814023456395,
      "semi_major_axis_km": 6706.196572262703,
      "eccentricity": 6.49e-05,
      "inclination_deg": 53.1595,
      "raan_deg": 252.6638,
      "arg_perigee_deg": 34.9968,
      "mean_anomaly_deg": 216.3698,
      "mean_motion_rev_day": 15.80841553
    }
  ]
}